STARLINK-3235           
1 50200U 21125AW  24174.24281056  .00000121  00000+0  25666-4 0  9996
2 50200  53.2172 166.8225 0001456  87.7671 272.3488 15.08837375142324
STARLINK-3255           
1 50201U 21125AX  24174.36889394 -.00000097  00000+0  12024-4 0  9996
2 50201  53.2168 166.3062 0001351  89.0819 271.0328 15.08837036142331
STARLINK-3256           
1 50202U 21125AY  24174.41577914  .00000037  00000+0  20452-4 0  9992
2 50202  53.2161 166.0844 0001483  89.8035 270.3127 15.08823476142336
STARLINK-3257           
1 50203U 21125AZ  24174.25115573  .00004422  00000+0  29582-3 0  9998
2 50203  53.2173 166.9130 0001324  90.6750 269.4394 15.08832483142372
STARLINK-3254           
1 50204U 21125BA  24174.35785634 -.00000012  00000+0  17319-4 0  9999
2 50204  53.2166 166.3571 0001383  96.2736 263.8414 15.08834995142381
STARLINK-3260           
1 50205U 21125BB  24174.89421145 -.00000602  00000+0 -19754-4 0  9994
2 50205  53.2164 133.9299 0001508  87.1686 272.9478 15.08836939142368
STARLINK-3258           
1 50206U 21125BC  24174.41671977  .00000027  00000+0  19804-4 0  9998
2 50206  53.2160 165.9756 0001305  90.3898 269.7244 15.08832725140265
STARLINK-3262           
1 50207U 21125BD  24174.36424322  .00001966  00000+0  14153-3 0  9997
2 50207  53.2164 166.3179 0001371  90.2569 269.8581 15.08848870140321
STARLINK-3321           
1 50803U 22001A   24174.08364838  .00005247  00000+0  34733-3 0  9999
2 50803  53.2174  97.5744 0001310  80.8545 279.2595 15.08858973135968
STARLINK-3323           
1 50804U 22001B   24174.78009483  .00000780  00000+0  67091-4 0  9990
2 50804  53.2171  84.4475 0001262  84.9865 275.1271 15.08835825137451
STARLINK-3333           
1 50805U 22001C   24174.18025393 -.00001318  00000+0 -64730-4 0  9990
2 50805  53.2181  87.1397 0001294 107.0394 253.0740 15.08840450136113
STARLINK-3335           
1 50806U 22001D   24174.04409494 -.00000623  00000+0 -21042-4 0  9991
2 50806  53.2175  87.7508 0001422  97.4933 262.6221 15.08832972136098
STARLINK-3355           
1 50808U 22001F   24174.16920946  .00001092  00000+0  86684-4 0  9998
2 50808  53.2179  87.1914 0001412 100.9135 259.2016 15.08841851136115
STARLINK-3232           
1 50809U 22001G   24174.17289056  .00000072  00000+0  22613-4 0  9999
2 50809  53.2180  87.1732 0001624 107.8052 252.3117 15.08839839136114
STARLINK-3348           
1 50810U 22001H   24174.83951983  .00001544  00000+0  17601-4 0  9995
2 50810  53.2168  43.7703 0000867 101.7596 258.3520 15.69706100138030
STARLINK-3347           
1 50811U 22001J   24174.89049176  .00001149  00000+0  90295-4 0  9995
2 50811  53.2170  83.9894 0001520  91.2494 268.8672 15.08842373137509
STARLINK-3338           
1 50812U 22001K   24173.99994688  .00000645  00000+0  58601-4 0  9998
2 50812  53.2180  88.0577 0001399 101.2311 258.8839 15.08836737136082
STARLINK-3349           
1 50813U 22001L   24174.74696853  .00005988  00000+0  39419-3 0  9996
2 50813  53.2183  84.5479 0001487  96.5996 263.5165 15.08819377137459
STARLINK-3324           
1 50814U 22001M   24174.20141454  .00000373  00000+0  41521-4 0  9991
2 50814  53.2172  97.0445 0001440 101.4282 258.6872 15.08838909135981
STARLINK-3234           
1 50815U 22001N   24174.07997264 -.00000057  00000+0  14543-4 0  9999
2 50815  53.2166  97.5885 0001614  86.7343 273.3834 15.08838087135961
STARLINK-3342           
1 50816U 22001P   24174.18300933 -.00000120  00000+0  10579-4 0  9999
2 50816  53.2180  97.1301 0001562  99.1411 260.9758 15.08851601135978
STARLINK-3341           
1 50817U 22001Q   24174.80493455  .00000264  00000+0  34684-4 0  9992
2 50817  53.2173  94.3348 0001383  83.3452 276.7698 15.08835316137326
STARLINK-3336           
1 50818U 22001R   24174.78653107 -.00000218  00000+0  44025-5 0  9993
2 50818  53.2186  94.4143 0001806 121.7699 238.3470 15.08839214137340
STARLINK-3327           
1 50819U 22001S   24174.19772776 -.00000154  00000+0  84231-5 0  9995
2 50819  53.2172  97.0622 0001376 105.2921 254.8224 15.08842691135985
STARLINK-3339           
1 50820U 22001T   24174.77548210 -.00005712  00000+0 -34079-3 0  9994
2 50820  53.2186  94.4694 0001446  89.0352 271.0806 15.08869400137343
STARLINK-3346           
1 50821U 22001U   24174.15356152  .00000317  00000+0  37982-4 0  9990
2 50821  53.2171  97.1442 0001181 102.4362 257.6762 15.08834289135971
STARLINK-3343           
1 50822U 22001V   24174.17197561  .00001499  00000+0  11223-3 0  9991
2 50822  53.2183  97.1797 0001411  96.2799 263.8354 15.08837694135977
STARLINK-3334           
1 50823U 22001W   24174.20509120  .00002254  00000+0  15967-3 0  9993
2 50823  53.2172  97.0279 0001457  96.0609 264.0549 15.08839956135981
STARLINK-3340           
1 50824U 22001X   24174.07752166  .00136423  00000+0  11127-2 0  9998
2 50824  53.2170  90.9818 0001031  75.0405 285.0728 15.69706624136053
STARLINK-3332           
1 50825U 22001Y   24174.77180797 -.00003733  00000+0 -21645-3 0  9997
2 50825  53.2186  94.4897 0001551  81.4236 278.6932 15.08858981137331
STARLINK-3337           
1 50826U 22001Z   24174.05674488  .00087171  00000+0  25201-2 0  9991
2 50826  53.2144  79.9009 0006078 100.0077 260.1612 15.34898033136217
STARLINK-3329           
1 50827U 22001AA  24174.05420883  .00000716  00000+0  63041-4 0  9996
2 50827  53.2170  97.7073 0001370  88.8417 271.2733 15.08849428135959
STARLINK-3290           
1 50828U 22001AB  24174.17291127  .00001564  00000+0  11631-3 0  9996
2 50828  53.2180  97.0647 0001355  84.6227 275.4920 15.08844409135821
STARLINK-3294           
1 50829U 22001AC  24174.79021289  .00003515  00000+0  23884-3 0  9996
2 50829  53.2177  94.4022 0001073  85.1641 274.9474 15.08836702137332
STARLINK-3278           
1 50830U 22001AD  24174.21152308 -.00000060  00000+0  14296-4 0  9993
2 50830  53.2171 106.9995 0001368  97.9004 262.2143 15.08853609137111
STARLINK-3299           
1 50831U 22001AE  24174.75342474  .00000978  00000+0  79557-4 0  9996
2 50831  53.2167  94.6336 0001166  87.1536 272.9590 15.08834100137339
STARLINK-3328           
1 50832U 22001AF  24174.21249182  .00000127  00000+0  26090-4 0  9990
2 50832  53.2175 107.0448 0001402  99.3524 260.7627 15.08840984137093
STARLINK-3316           
1 50833U 22001AG  24174.58335648  .00129086  00000+0  27223-2 0  9997
2 50833  53.2027  52.6384 0005681  65.8522  70.5795 15.44296073  5791
STARLINK-3331           
1 50834U 22001AH  24174.19681398  .00001309  00000+0  10030-3 0  9997
2 50834  53.2173 107.0682 0001222  94.9063 265.2069 15.08838902135839
STARLINK-3310           
1 50835U 22001AJ  24174.20051049  .00000276  00000+0  35454-4 0  9994
2 50835  53.2182 107.1674 0001546  93.4451 266.6718 15.08840850135837
STARLINK-3330           
1 50836U 22001AK  24174.24558588  .00000001  00000+0  18144-4 0  9992
2 50836  53.2168 106.6244 0001269 100.1971 259.9164 15.08834294135749
STARLINK-3318           
1 50837U 22001AL  24174.16093399  .00000628  00000+0  57547-4 0  9993
2 50837  53.2172  97.2260 0001385  70.4613 289.6529 15.08841403135979
STARLINK-3322           
1 50838U 22001AM  24174.08337541  .00023246  00000+0  14567-2 0  9999
2 50838  53.2164 102.5493 0001296 105.3871 254.7265 15.09268389135892
STARLINK-3320           
1 50839U 22001AN  24174.24464998  .00000457  00000+0  46810-4 0  9992
2 50839  53.2172 106.8518 0001459 105.4368 254.6786 15.08839035135832
STARLINK-3295           
1 50840U 22001AP  24174.24095828  .00003214  00000+0  21988-3 0  9998
2 50840  53.2167 106.8701 0001203  92.0970 268.0160 15.08852623135832
STARLINK-3300           
1 50841U 22001AQ  24174.25201227  .00001595  00000+0  11827-3 0  9993
2 50841  53.2176 106.8175 0001342 104.7832 255.3309 15.08838069135843
STARLINK-3302           
1 50842U 22001AR  24174.83345416  .00000150  00000+0  27544-4 0  9997
2 50842  53.2173 104.2089 0001393  91.0561 269.0590 15.08835630137218
STARLINK-3325           
1 50843U 22001AS  24174.19313210  .00000743  00000+0  64745-4 0  9996
2 50843  53.2178 107.0865 0001389  92.3014 267.8137 15.08839834135838
STARLINK-3326           
1 50844U 22001AT  24174.22624584  .00000632  00000+0  57769-4 0  9995
2 50844  53.2167 106.9311 0001389  98.6324 261.4825 15.08840691135842
STARLINK-3230           
1 50845U 22001AU  24174.80033359  .00001851  00000+0  13438-3 0  9992
2 50845  53.2175 104.3573 0001326 100.3463 259.7679 15.08840439137164
STARLINK-3308           
1 50846U 22001AV  24174.82979423 -.00000758  00000+0 -29503-4 0  9994
2 50846  53.2167 104.3426 0001455  70.2330 289.8819 15.08842774137214
STARLINK-3319           
1 50847U 22001AW  24174.24929135  .00000237  00000+0  33010-4 0  9994
2 50847  53.2177 106.8386 0001371  92.0431 268.0718 15.08835636135842
STARLINK-3315           
1 50848U 22001AX  24174.21888690  .00000122  00000+0  25734-4 0  9999
2 50848  53.2172 106.9656 0001480 104.3138 255.8019 15.08845425137152
STARLINK-3311           
1 50849U 22001AY  24174.09744710  .00000768  00000+0  66325-4 0  9997
2 50849  53.2172 107.5073 0001583 103.2856 256.8313 15.08840360135825
STARLINK-3312           
1 50850U 22001AZ  24174.82976874  .00000289  00000+0  36216-4 0  9992
2 50850  53.2185  64.2261 0001400  98.8564 261.2587 15.08849144137770
STARLINK-3314           
1 50851U 22001BA  24174.80400525  .00000203  00000+0  30870-4 0  9992
2 50851  53.2181 104.2627 0001607 101.5765 258.5408 15.08837718137216
STARLINK-3366           
1 51104U 22005A   24174.49949414  .00001309  00000+0  10031-3 0  9992
2 51104  53.2163 215.7095 0001294  87.9804 272.1336 15.08839644134497
STARLINK-3350           
1 51105U 22005B   24174.53996959  .00000656  00000+0  59305-4 0  9996
2 51105  53.2168 215.5286 0001384  99.5586 260.5562 15.08840754134507
STARLINK-3176           
1 51106U 22005C   24174.31917058  .00000735  00000+0  64269-4 0  9999
2 51106  53.2163 216.5194 0001399  94.0223 266.0929 15.08846277134465
